{
  "type": "FeatureCollection",
  "features": [
    {
      "type": "Feature",
      "properties": {
        "norad_id": 44333,
        "name": "AT&T T-16",
        "group": "intelsat",
        "lat": 0.025015629413032082,
        "lon": 126.55110733088081,
        "alt_km": 35782.67277270605,
        "timestamp": "2025-12-14T09:36:22.702625+00:00",
        "meta_object_name": "AT&T T-16",
        "meta_object_id": "2019-034A",
        "meta_epoch": "2025-12-13T14:40:58.675008",
        "meta_mean_motion": 1.0027481,
        "meta_eccentricity": 7.269e-05,
        "meta_inclination": 0.0263,
        "meta_ra_of_asc_node": 70.8339,
        "meta_arg_of_pericenter": 88.193,
        "meta_mean_anomaly": 42.902,
        "meta_ephemeris_type": 0,
        "meta_classification_type": "U",
        "meta_norad_cat_id": 44333,
        "meta_element_set_no": 999,
        "meta_rev_at_epoch": 2377,
        "meta_bstar": 0,
        "meta_mean_motion_dot": -1e-06,
        "meta_mean_motion_ddot": 0,
        "tle_line1": "1 44333U 19034A   25347.61179022 -.00000100  00000+0  00000+0 0  9993",
        "tle_line2": "2 44333   0.0263  70.8339 0000726  88.1930  42.9020  1.00274810 23773"
      },
      "geometry": {
        "type": "Point",
        "coordinates": [
          126.55110733088081,
          0.025015629413032082
        ]
      }
    },
    {
      "type": "Feature",
      "properties": {
        "norad_id": 44476,
        "name": "INTELSAT 39 (IS-39)",
        "group": "intelsat",
        "lat": -0.01786588600055129,
        "lon": -70.65119321846878,
        "alt_km": 35790.391615825385,
        "timestamp": "2025-12-14T09:36:22.702636+00:00",
        "meta_object_name": "INTELSAT 39 (IS-39)",
        "meta_object_id": "2019-049B",
        "meta_epoch": "2025-12-13T12:01:58.901952",
        "meta_mean_motion": 1.00271212,
        "meta_eccentricity": 0.00010877,
        "meta_inclination": 0.0029,
        "meta_ra_of_asc_node": 9.4582,
        "meta_arg_of_pericenter": 123.2888,
        "meta_mean_anomaly": 192.1224,
        "meta_ephemeris_type": 0,
        "meta_classification_type": "U",
        "meta_norad_cat_id": 44476,
        "meta_element_set_no": 999,
        "meta_rev_at_epoch": 2326,
        "meta_bstar": 0,
        "meta_mean_motion_dot": 4.8e-07,
        "meta_mean_motion_ddot": 0,
        "tle_line1": "1 44476U 19049B   25347.50137618  .00000048  00000+0  00000+0 0  9990",
        "tle_line2": "2 44476   0.0029   9.4582 0001087 123.2888 192.1224  1.00271212 23264"
      },
      "geometry": {
        "type": "Point",
        "coordinates": [
          -70.65119321846878,
          -0.01786588600055129
        ]
      }
    },
    {
      "type": "Feature",
      "properties": {
        "norad_id": 46114,
        "name": "GALAXY 30 (G-30)",
        "group": "intelsat",
        "lat": 0.03189191954383058,
        "lon": 102.40875839125344,
        "alt_km": 35794.327015905386,
        "timestamp": "2025-12-14T09:36:22.702647+00:00",
        "meta_object_name": "GALAXY 30 (G-30)",
        "meta_object_id": "2020-056C",
        "meta_epoch": "2025-12-13T14:33:59.343840",
        "meta_mean_motion": 1.00273252,
        "meta_eccentricity": 0.00021731,
        "meta_inclination": 0.0181,
        "meta_ra_of_asc_node": 341.6276,
        "meta_arg_of_pericenter": 282.0947,
        "meta_mean_anomaly": 272.32,
        "meta_ephemeris_type": 0,
        "meta_classification_type": "U",
        "meta_norad_cat_id": 46114,
        "meta_element_set_no": 999,
        "meta_rev_at_epoch": 1943,
        "meta_bstar": 0,
        "meta_mean_motion_dot": 5.2e-07,
        "meta_mean_motion_ddot": 0,
        "tle_line1": "1 46114U 20056C   25347.60693685  .00000052  00000+0  00000+0 0  9998",
        "tle_line2": "2 46114   0.0181 341.6276 0002173 282.0947 272.3200  1.00273252 19437"
      },
      "geometry": {
        "type": "Point",
        "coordinates": [
          102.40875839125344,
          0.03189191954383058
        ]
      }
    },
    {
      "type": "Feature",
      "properties": {
        "norad_id": 54026,
        "name": "GALAXY 33 (G-33)",
        "group": "intelsat",
        "lat": 0.02259640459826545,
        "lon": 94.39921983754526,
        "alt_km": 35793.63865903855,
        "timestamp": "2025-12-14T09:36:22.702659+00:00",
        "meta_object_name": "GALAXY 33 (G-33)",
        "meta_object_id": "2022-128A",
        "meta_epoch": "2025-12-13T13:55:48.093600",
        "meta_mean_motion": 1.00272134,
        "meta_eccentricity": 0.00019215,
        "meta_inclination": 0.0049,
        "meta_ra_of_asc_node": 342.6212,
        "meta_arg_of_pericenter": 273.6399,
        "meta_mean_anomaly": 262.2005,
        "meta_ephemeris_type": 0,
        "meta_classification_type": "U",
        "meta_norad_cat_id": 54026,
        "meta_element_set_no": 999,
        "meta_rev_at_epoch": 1188,
        "meta_bstar": 0,
        "meta_mean_motion_dot": 9.4e-07,
        "meta_mean_motion_ddot": 0,
        "tle_line1": "1 54026U 22128A   25347.58041775  .00000094  00000+0  00000+0 0  9991",
        "tle_line2": "2 54026   0.0049 342.6212 0001921 273.6399 262.2005  1.00272134 11889"
      },
      "geometry": {
        "type": "Point",
        "coordinates": [
          94.39921983754526,
          0.02259640459826545
        ]
      }
    },
    {
      "type": "Feature",
      "properties": {
        "norad_id": 54027,
        "name": "GALAXY 34 (G-34)",
        "group": "intelsat",
        "lat": 0.038614026008176504,
        "lon": 98.46281320897656,
        "alt_km": 35791.94540118949,
        "timestamp": "2025-12-14T09:36:22.702670+00:00",
        "meta_object_name": "GALAXY 34 (G-34)",
        "meta_object_id": "2022-128B",
        "meta_epoch": "2025-12-13T13:52:22.778688",
        "meta_mean_motion": 1.00270439,
        "meta_eccentricity": 0.00014197,
        "meta_inclination": 0.0218,
        "meta_ra_of_asc_node": 356.0003,
        "meta_arg_of_pericenter": 260.0494,
        "meta_mean_anomaly": 265.6221,
        "meta_ephemeris_type": 0,
        "meta_classification_type": "U",
        "meta_norad_cat_id": 54027,
        "meta_element_set_no": 999,
        "meta_rev_at_epoch": 1205,
        "meta_bstar": 0,
        "meta_mean_motion_dot": 0,
        "meta_mean_motion_ddot": 0,
        "tle_line1": "1 54027U 22128B   25347.57804142  .00000000  00000+0  00000+0 0  9993",
        "tle_line2": "2 54027   0.0218 356.0003 0001419 260.0494 265.6221  1.00270439 12056"
      },
      "geometry": {
        "type": "Point",
        "coordinates": [
          98.46281320897656,
          0.038614026008176504
        ]
      }
    },
    {
      "type": "Feature",
      "properties": {
        "norad_id": 54243,
        "name": "GALAXY 31 (G-31)",
        "group": "intelsat",
        "lat": 0.02392399370017469,
        "lon": 106.39022331992612,
        "alt_km": 35792.61035732265,
        "timestamp": "2025-12-14T09:36:22.702681+00:00",
        "meta_object_name": "GALAXY 31 (G-31)",
        "meta_object_id": "2022-153A",
        "meta_epoch": "2025-12-13T12:58:34.699296",
        "meta_mean_motion": 1.00270608,
        "meta_eccentricity": 0.00014992,
        "meta_inclination": 0.0123,
        "meta_ra_of_asc_node": 334.2317,
        "meta_arg_of_pericenter": 302.455,
        "meta_mean_anomaly": 239.4218,
        "meta_ephemeris_type": 0,
        "meta_classification_type": "U",
        "meta_norad_cat_id": 54243,
        "meta_element_set_no": 999,
        "meta_rev_at_epoch": 527,
        "meta_bstar": 0,
        "meta_mean_motion_dot": 0,
        "meta_mean_motion_ddot": 0,
        "tle_line1": "1 54243U 22153A   25347.54067939  .00000000  00000+0  00000+0 0  9993",
        "tle_line2": "2 54243   0.0123 334.2317 0001499 302.4550 239.4218  1.00270608  5278"
      },
      "geometry": {
        "type": "Point",
        "coordinates": [
          106.39022331992612,
          0.02392399370017469
        ]
      }
    },
    {
      "type": "Feature",
      "properties": {
        "norad_id": 54244,
        "name": "GALAXY 32 (G-32)",
        "group": "intelsat",
        "lat": 0.018044369675263013,
        "lon": 136.40379852733952,
        "alt_km": 35796.93304074986,
        "timestamp": "2025-12-14T09:36:22.702692+00:00",
        "meta_object_name": "GALAXY 32 (G-32)",
        "meta_object_id": "2022-153B",
        "meta_epoch": "2025-12-12T13:02:51.144864",
        "meta_mean_motion": 1.00272099,
        "meta_eccentricity": 0.00025848,
        "meta_inclination": 0.0111,
        "meta_ra_of_asc_node": 11.8146,
        "meta_arg_of_pericenter": 300.84,
        "meta_mean_anomaly": 233.5475,
        "meta_ephemeris_type": 0,
        "meta_classification_type": "U",
        "meta_norad_cat_id": 54244,
        "meta_element_set_no": 999,
        "meta_rev_at_epoch": 1127,
        "meta_bstar": 0,
        "meta_mean_motion_dot": -1.63e-06,
        "meta_mean_motion_ddot": 0,
        "tle_line1": "1 54244U 22153B   25346.54364751 -.00000163  00000+0  00000+0 0  9996",
        "tle_line2": "2 54244   0.0111  11.8146 0002584 300.8400 233.5475  1.00272099 11279"
      },
      "geometry": {
        "type": "Point",
        "coordinates": [
          136.40379852733952,
          0.018044369675263013
        ]
      }
    }
  ]
}